#cP2018  1 21  0  0  0.00000000      96 ORBIT IGS14 HLM  IGS
## 1985      0.00000000   900.00000000 58139 0.0000000000000
+   32   G01G02G03G04G05G06G07G08G09G10G11G12G13G14G15G16G17
+        G18G19G20G21G22G23G24G25G26G27G28G29G30G31G32  0  0
+          0  0  0  0  0  0  0  0  0  0  0  0  0  0  0  0  0
+          0  0  0  0  0  0  0  0  0  0  0  0  0  0  0  0  0
+          0  0  0  0  0  0  0  0  0  0  0  0  0  0  0  0  0
++         2  3  2  0  2  2  2  2  2  2  2  3  2  2  2  2  2
++         2  3  2  2  2  2  2  2  2  2  2  2  2  2  2  0  0
++         0  0  0  0  0  0  0  0  0  0  0  0  0  0  0  0  0
++         0  0  0  0  0  0  0  0  0  0  0  0  0  0  0  0  0
++         0  0  0  0  0  0  0  0  0  0  0  0  0  0  0  0  0
%c G  cc GPS ccc cccc cccc cccc cccc ccccc ccccc ccccc ccccc
%c cc cc ccc ccc cccc cccc cccc cccc ccccc ccccc ccccc ccccc
%f  1.2500000  1.025000000  0.00000000000  0.000000000000000
%f  0.0000000  0.000000000  0.00000000000  0.000000000000000
%i    0    0    0    0      0      0      0      0         0
%i    0    0    0    0      0      0      0      0         0
/* FINAL ORBIT COMBINATION FROM WEIGHTED AVERAGE OF:        
/* cod emr esa gfz grg jpl mit ngs sio                      
/* REFERENCED TO IGS TIME (IGST) AND TO WEIGHTED MEAN POLE: 
/* PCV:IGS14_1986 OL/AL:FES2004  NONE     Y  ORB:CMB CLK:CMB
*  2018  1 21 12 45  0.00000000
PG01  -9976.149830  20468.187146 -13567.253249    -24.648579  5  5  7 110       
PG02  21498.182944 -13379.848621  -6969.749675    222.221577 11  8  7  98       
PG03  -1346.979296  15514.635049 -21539.156675     -5.946738  3  4  5  93       
PG04 -25260.651462  -8394.660715   2044.483362 999999.999999
PG05  20912.542353  -4829.687568  15674.074855    -16.387623  7  5  4 100       
PG06  20500.581324  -2425.905505 -16686.897399    414.843493  9  6  7  94       
PG07   5458.032040  14908.597745  21433.156855    248.362233  5  2  3  91       
PG08  -6731.858092  20627.026830  15288.381463    -88.420806  4  1  3  95       
PG09   8447.248425  24646.950111   5097.036715    494.900035  5  6  6  55       
PG10 -24144.772846 -10850.059672   3039.906791    149.216248  6  4  3  99       
PG11  -7494.568065  25079.901226  -5462.718210   -734.559350  5  4  5  95       
PG12   4405.783022 -14083.516425 -22262.378935    354.373543  8  5  6  94       
PG13  12438.952005 -13291.268870  19225.510355    -95.424624  5  4  6  90       
PG14 -15247.455299  -3928.282002 -21135.410799    -92.753306  8  6  8 102       
PG15   5036.308235 -21732.641245  13913.875944   -357.318354  6  5  5  88       
PG16 -20742.068015   2543.846650  16502.971318     33.689664 10  3  6  84       
PG17  13758.027706  13777.344927 -17745.115414   -129.294753  9  6  5  37       
PG18 -17000.389434 -15803.882464  13657.309521    633.483969  9  4  5  79       
PG19  14972.635828   5141.383143 -21571.986272   -462.307903 10  7  6  83       
PG20   3129.506782 -15545.616611  21161.564161    498.859990  3  3  4  80       
PG21  -8488.000508 -13781.665050  21859.353363   -439.371065  7  5  3  55       
PG22  -9474.801772  13408.236906 -20640.984738   -264.436783  5  4  7  96       
PG23    490.962105  25568.467851  -6028.649542   -219.084147  9  3  6  46       
PG24  11855.528457 -21192.209540 -10528.270190    -45.073025  4  3  2  66       
PG25 -10034.520683 -16781.677346 -18247.091558   -525.916126  7  4  8 102       
PG26 -25410.117601  -3261.075106   7251.352099   -279.394006 10  4  5  92       
PG27 -13114.047236   8517.715711  21371.634590    363.680782  5  4  4  58       
PG28  21281.444858  14633.338197   6731.432343    681.764856  8  6  5  93       
PG29  -4033.367422 -26228.337752   1325.670661    507.960334  4  4  4  76       
PG30  13639.184254   8750.409694  21067.202556    110.632763  3  2  4  88       
PG31 -21349.557385   3026.320328 -15730.447962    147.133676  7  6  5  99       
PG32 -15224.239532 -12215.657656 -18021.036779   -533.011720  5  3  5  75       
*  2018  1 21 13  0  0.00000000
PG01 -11159.357888  21252.810555 -11183.541460    -24.650298  6  5  6 108       
PG02  20986.871102 -12443.773376  -9595.673363    222.212013 11  8  7  90       
PG03  -3707.151644  14772.139318 -21778.899485     -5.940455  3  3  5  96       
PG04 -25290.309866  -8593.761386   -831.971324 999999.999999
PG05  22468.938644  -4146.834577  13610.613189    -16.387026  8  5  4 109       
PG06  19105.110945   -971.895570 -18398.582643    414.843599  8  6  7  81       
PG07   3610.737386  16404.883425  20671.966783    248.357383  5  2  2  74       
PG08  -7300.450281  18856.075643  17212.369006    -88.422389  4  2  3  61       
PG09   8272.705067  25125.456708   2299.248065    494.902907  6  7  6  67       
PG10 -23594.017446 -10924.382552   5827.548798    149.221090  6  4  3  96       
PG11  -8021.853877  25297.856713  -2785.980745   -734.560425  5  4  5  93       
PG12   6730.974281 -13162.618522 -22226.639758    354.372030  9  5  6  97       
PG13  12750.889706 -11021.268163  20411.411387    -95.424685  5  4  7  98       
PG14 -15508.184484  -6344.678904 -20369.382342    -92.753877  8  6  8 113       
PG15   5804.188773 -20124.167541  15900.616723   -357.318276  5  5  5  92       
PG16 -22339.978194   1768.363790  14441.510671     33.688959 10  4  6  81       
PG17  13952.609795  15755.193475 -15902.811197   -129.291983  8  6  4  63       
PG18 -15403.960210 -15621.390502  15685.266904    633.484019  9  5  5  78       
PG19  15178.752494   7492.965270 -20692.445416   -462.305303 10  7  5  85       
PG20   5531.184432 -15023.158822  21043.980368    498.861261  3  2  4  99       
PG21  -6809.405517 -15374.338240  21356.569121   -439.367153  7  5  2  79       
PG22 -11752.973174  12707.879640 -19909.874448   -264.448396  6  4  6 108       
PG23    -20.249931  24775.868665  -8698.870751   -219.084361  8  3  6  67       
PG24  12816.427585 -21719.007108  -7970.023649    -45.073456  4  3  3  60       
PG25  -7980.414866 -16210.268077 -19710.714662   -525.921650  7  4  7  95       
PG26 -25980.370084  -3692.311957   4516.372497   -279.381385  9  3  5  86       
PG27 -13689.787423   6100.567633  21851.970238    363.682587  5  4  4  59       
PG28  20439.371612  14453.510985   9442.977938    681.767522  7  6  4 104       
PG29  -3842.661752 -26244.445022  -1572.393806    507.955626  4  4  4  90       
PG30  11768.387143  10312.622450  21471.486738    110.629798  3  3  4  98       
PG31 -19991.237446   1694.047515 -17563.452528    147.131340  6  6  5 106       
PG32 -15495.404075 -14168.828302 -16284.590099   -533.011861  5  4  5 110       
*  2018  1 21 13 15  0.00000000
PG01 -12102.505600  21899.142056  -8605.663628    -24.652079  6  5  6  99       
PG02  20329.103355 -11261.507820 -12049.874362    222.202949 11  8  8  97       
PG03  -6109.063202  14152.138553 -21644.565226     -5.934239  3  3  4  97       
PG04 -25020.947717  -8700.199903  -3694.387751 999999.999999
PG05  23817.087469  -3601.531548  11313.819391    -16.385989  8  5  5  87       
PG06  17666.179460    680.999053 -19792.999853    414.843661  8  6  7 107       
PG07   1915.539018  17924.330108  19558.111401    248.352140  5  2     90       
PG08  -8017.852990  16925.646014  18839.956567    -88.423446  4  2  3  88       
PG09   8034.361840  25305.813611   -538.155036    494.905763  6  7  5  73       
PG10 -22748.700969 -10951.001802   8515.848269    149.225954  6  4  4  99       
PG11  -8435.684195  25256.629742    -62.007226   -734.561312  6  4  5  99       
PG12   9082.690233 -12382.370495 -21814.180133    354.370089  9  5  6  99       
PG13  13200.352684  -8656.916283  21242.509601    -95.424621  5  4  7  90       
PG14 -15872.206909  -8635.722098 -19245.457286    -92.754417  7  7  8 103       
PG15   6715.968072 -18355.401897  17605.434510   -357.318185  5  5  5  99       
PG16 -23743.836216   1167.622905  12134.272218     33.688307 10  5  7  83       
PG17  14206.095037  17494.294995 -13781.119639   -129.289687  7  7  4  54       
PG18 -13598.455423 -15472.576018  17455.377422    633.484106  8  5  5  60       
PG19  15494.386008   9715.875234 -19463.743018   -462.303187  9  7  4  90       
PG20   7921.045837 -14617.930531  20559.400727    498.862319  3  2  5  92       
PG21  -5262.050930 -16998.009746  20510.875547   -439.363001  6  5  2  81       
PG22 -13958.896886  12133.513072 -18829.207285   -264.460142  7  3  6 108       
PG23   -652.452592  23723.224441 -11214.160999   -219.084348  8  2  6  77       
PG24  13550.980749 -22071.635121  -5272.872180    -45.072211  5  4  3  45       
PG25  -5755.857476 -15716.078312 -20841.900569   -525.927205  7  5  7 100       
PG26 -26267.924913  -4019.907896   1704.242694   -279.368808  9  4  5  93       
PG27 -14404.310903   3688.606612  21953.660468    363.684411  5  3  4  71       
PG28  19313.549981  14221.557305  11995.571207    681.770511  7  6  5  94       
PG29  -3584.138228 -25951.258076  -4443.427768    507.950572  5  4  3 104       
PG30   9958.167044  11983.620251  21506.650159    110.626911  3  3  5 105       
PG31 -18567.070799    157.363392 -19097.724061    147.129092  6  6  4  97       
PG32 -15808.786878 -15900.728223 -14268.260242   -533.011997  4  4  5  53       
EOF
